YOTSUBA-KULOVER         
1 65941U 98067XN  26067.69390739  .00254466  00000+0  12995-2 0  9996
2 65941  51.6212  62.4559 0005715  60.6343 299.5228 15.80060036 23343
E-KAGAKU-1              
1 65943U 98067XQ  26067.69814550  .00247328  00000+0  12838-2 0  9995
2 65943  51.6232  62.5017 0006070  67.8284 292.3361 15.79720534 23348
HRC MONOBLOCK CAMERA    
1 66052U 98067XR  26067.99667471  .00065165  00000+0  72842-3 0  9997
2 66052  51.6277  69.0307 0003636  87.1335 273.0075 15.62119990 22280
HTV-X1                  
1 66174U 25241A   26067.73890429  .00009449  00000+0  18227-3 0  9999
2 66174  51.6319  77.0569 0008050 171.0721 189.0412 15.48531098554471
SZ-21 MODULE            
1 66515U 25246C   26067.73638915  .00047754  00000+0  41113-3 0  9994
2 66515  41.4736 209.2286 0001365 296.9264  63.1439 15.68463397 17929
SHENZHOU-22             
1 66645U 25272A   26067.81967659  .00029275  00000+0  34617-3 0  9995
2 66645  41.4664 213.4556 0006998 268.3248  91.6789 15.60610742267529
SOYUZ-MS 28             
1 66664U 25275A   26067.73890429  .00009449  00000+0  18227-3 0  9990
2 66664  51.6319  77.0569 0008050 171.0721 189.0412 15.48531098554521
DUPLEX                  
1 66906U 98067XS  26067.43022830  .00044619  00000+0  62980-3 0  9991
2 66906  51.6288  75.7492 0002272 106.3589 253.7653 15.56119236 14935
ISS OBJECT XT           
1 66907U 98067XT  26067.30898696  .00215395  00000+0  18024-2 0  9999
2 66907  51.6249  72.6759 0004713  69.3241 290.8261 15.68765418 14962
ISS OBJECT XU           
1 66908U 98067XU  26067.24358831  .00214540  00000+0  17893-2 0  9999
2 66908  51.6246  72.9860 0004911  71.7703 288.3828 15.68848873 14953
SILVERSAT               
1 66909U 98067XV  26067.56532025  .00238432  00000+0  17566-2 0  9997
2 66909  51.6250  70.6330 0005569  69.6016 290.5580 15.71749865 15012
ISS OBJECT XW           
1 66910U 98067XW  26067.30329623  .00193965  00000+0  16698-2 0  9995
2 66910  51.6242  72.6301 0005106  77.4385 282.7182 15.68140942 14969
